{
  "links": {
    "self": "http://api.nasa.gov/neo/rest/v1/neo/54547735?api_key=3hMFcVGG3bILl6a9mBxBdjkWU71phGNDfEmA4fl4"
  },
  "id": "54547735",
  "neo_reference_id": "54547735",
  "name": "(2025 SY10)",
  "designation": "2025 SY10",
  "nasa_jpl_url": "https://ssd.jpl.nasa.gov/tools/sbdb_lookup.html#/?sstr=54547735",
  "absolute_magnitude_h": 26.151,
  "estimated_diameter": {
    "kilometers": {
      "estimated_diameter_min": 0.0156442583,
      "estimated_diameter_max": 0.0349816249
    },
    "meters": {
      "estimated_diameter_min": 15.644258253,
      "estimated_diameter_max": 34.9816249114
    },
    "miles": {
      "estimated_diameter_min": 0.0097208884,
      "estimated_diameter_max": 0.0217365673
    },
    "feet": {
      "estimated_diameter_min": 51.3263082469,
      "estimated_diameter_max": 114.7691142742
    }
  },
  "is_potentially_hazardous_asteroid": false,
  "close_approach_data": [
    {
      "close_approach_date": "2022-10-06",
      "close_approach_date_full": "2022-Oct-06 12:09",
      "epoch_date_close_approach": 1665058140000,
      "relative_velocity": {
        "kilometers_per_second": "10.9339713166",
        "kilometers_per_hour": "39362.2967396264",
        "miles_per_hour": "24458.2004380196"
      },
      "miss_distance": {
        "astronomical": "0.0516431587",
        "lunar": "20.0891887343",
        "kilometers": "7725706.541591969",
        "miles": "4800531.4413444122"
      },
      "orbiting_body": "Earth"
    },
    {
      "close_approach_date": "2025-10-05",
      "close_approach_date_full": "2025-Oct-05 00:59",
      "epoch_date_close_approach": 1759625940000,
      "relative_velocity": {
        "kilometers_per_second": "11.4006049777",
        "kilometers_per_hour": "41042.1779198957",
        "miles_per_hour": "25502.0132747263"
      },
      "miss_distance": {
        "astronomical": "0.0401538652",
        "lunar": "15.6198535628",
        "kilometers": "6006932.706187124",
        "miles": "3732534.9036813512"
      },
      "orbiting_body": "Earth"
    },
    {
      "close_approach_date": "2028-10-03",
      "close_approach_date_full": "2028-Oct-03 17:02",
      "epoch_date_close_approach": 1854205320000,
      "relative_velocity": {
        "kilometers_per_second": "11.8439112735",
        "kilometers_per_hour": "42638.080584631",
        "miles_per_hour": "26493.6451277114"
      },
      "miss_distance": {
        "astronomical": "0.0380221582",
        "lunar": "14.7906195398",
        "kilometers": "5688033.879523034",
        "miles": "3534380.3613405092"
      },
      "orbiting_body": "Earth"
    }
  ],
  "orbital_data": {
    "orbit_id": "3",
    "orbit_determination_date": "2025-09-29 09:52:42",
    "first_observation_date": "2025-09-25",
    "last_observation_date": "2025-09-29",
    "data_arc_in_days": 4,
    "observations_used": 29,
    "orbit_uncertainty": "8",
    "minimum_orbit_intersection": ".0375632",
    "jupiter_tisserand_invariant": "4.882",
    "epoch_osculation": "2460943.5",
    "eccentricity": ".3530056188870483",
    "semi_major_axis": "1.309359447807632",
    "inclination": "14.56942477509376",
    "ascending_node_longitude": "184.7311412446663",
    "orbital_period": "547.2512424629554",
    "perihelion_distance": ".8471482055886949",
    "perihelion_argument": "256.8202260492183",
    "aphelion_distance": "1.771570690026568",
    "perihelion_time": "2461008.396472430948",
    "mean_anomaly": "317.3089501451013",
    "mean_motion": ".6578331341556876",
    "equinox": "J2000",
    "orbit_class": {
      "orbit_class_type": "APO",
      "orbit_class_description": "Near-Earth asteroid orbits which cross the Earth\u2019s orbit similar to that of 1862 Apollo",
      "orbit_class_range": "a (semi-major axis) > 1.0 AU; q (perihelion) < 1.017 AU"
    }
  },
  "is_sentry_object": false
}